OBJECT_NAME,OBJECT_ID,EPOCH,MEAN_MOTION,ECCENTRICITY,INCLINATION,RA_OF_ASC_NODE,ARG_OF_PERICENTER,MEAN_ANOMALY,EPHEMERIS_TYPE,CLASSIFICATION_TYPE,NORAD_CAT_ID,ELEMENT_SET_NO,REV_AT_EPOCH,BSTAR,MEAN_MOTION_DOT,MEAN_MOTION_DDOT
COSMOS 2534 (758),2019-030A,2026-07-12T08:17:14.251776,2.13102039,.0013534,64.3707,191.7692,274.9561,84.6521,0,U,44299,999,5545,0,.95E-6,0
BEIDOU-3 IGSO-2 (C39),2019-035A,2026-07-12T12:50:19.421664,1.00258352,.0039614,55.2505,158.6408,216.5410,226.4924,0,U,44337,999,2592,0,-.117E-5,0
GPS BIII-2  (PRN 18),2019-056A,2026-07-12T08:46:49.051200,2.00569838,.00633189,55.6235,330.1426,198.1269,10.0581,0,U,44506,999,5057,0,-.89E-6,0
BEIDOU-3 M24 (C46),2019-061A,2026-07-12T11:30:08.902080,1.86229201,.0008605,54.3975,181.8749,359.4692,0.5232,0,U,44542,999,4626,0,.76E-6,0
BEIDOU-3 M23 (C45),2019-061B,2026-07-12T08:09:12.901824,1.86227274,.00058864,54.3961,181.8481,340.0484,197.8273,0,U,44543,999,4626,0,.78E-6,0
EUTELSAT 5 WEST B (EGNOS/PRN 121),2019-067A,2026-07-12T08:54:38.719872,1.00271425,.00029717,0.0624,352.5430,120.5076,305.8694,0,U,44624,999,2468,0,-.41E-6,0
BEIDOU-3 M22 (C44),2019-078A,2026-07-11T05:53:37.627296,1.86227377,.00057414,53.9127,298.9816,49.9615,310.1118,0,U,44793,999,4509,0,-.63E-6,0
BEIDOU-3 M21 (C43),2019-078B,2026-07-08T03:55:41.277216,1.86228045,.00037906,53.8889,299.0507,48.5315,311.5256,0,U,44794,999,4504,0,-.63E-6,0
COSMOS 2544 (759),2019-088A,2026-07-11T10:20:31.607232,2.13103003,.00123436,65.5781,72.9223,255.3717,104.5561,0,U,44850,999,5123,0,-.19E-6,0
BEIDOU-3 M19 (C41),2019-090A,2026-07-12T08:38:39.850944,1.86231323,.00168515,56.5807,61.9598,297.6742,193.4156,0,U,44864,999,4470,0,-.41E-6,0
BEIDOU-3 M20 (C42),2019-090B,2026-07-12T06:01:01.318944,1.86231220,.00145774,56.5820,61.9977,312.6520,194.6235,0,U,44865,999,4468,0,-.41E-6,0
BEIDOU-3 G2 (C60),2020-017A,2026-07-12T15:36:08.092224,1.00269363,.00020202,2.9130,47.6851,59.8996,137.0297,0,U,45344,999,2351,0,-.142E-5,0
COSMOS 2545 (760),2020-018A,2026-07-07T20:55:22.502208,2.13102711,.00092133,64.3418,311.6924,230.0449,129.8870,0,U,45358,999,4910,0,-.52E-6,0
BEIDOU-3 G3 (C61),2020-040A,2026-07-12T15:44:52.254240,1.00265109,.00017389,2.5062,67.4743,326.7513,242.9772,0,U,45807,999,2232,0,-.355E-5,0
GPS BIII-3  (PRN 23),2020-041A,2026-07-11T09:55:43.247136,2.00557807,.00649629,56.6842,28.0045,204.6177,333.3873,0,U,45854,999,4452,0,-.52E-6,0
GALAXY 30 (WAAS/PRN 135),2020-056C,2026-07-12T10:38:38.468256,1.00270957,.00019473,0.0038,98.3783,16.1890,210.4202,0,U,46114,999,2154,0,.38E-6,0
COSMOS 2547 (705K),2020-075A,2026-07-12T06:50:10.603680,2.13100039,.00094361,64.6015,191.6377,239.7427,120.1879,0,U,46805,999,4444,0,.96E-6,0
GPS BIII-4  (PRN 14),2020-078A,2026-07-11T23:45:12.982176,2.00564829,.0074476,53.9776,209.7728,207.7242,3.3972,0,U,46826,999,4200,0,.97E-6,0
GPS BIII-5  (PRN 11),2021-054A,2026-07-11T22:52:51.381408,2.00567154,.0026382,55.1616,331.4645,228.5362,142.6846,0,U,48859,999,3725,0,-.88E-6,0
QZS-1R (QZSS/PRN 196),2021-096A,2026-07-10T14:11:14.485632,1.00246773,.07548364,37.5070,79.2376,272.1562,282.0570,0,U,49336,999,1724,0,-.288E-5,0
GSAT0223 (GALILEO 27),2021-116A,2026-07-11T14:56:55.922208,1.70475848,.00023904,57.1523,341.0161,195.7836,160.7891,0,U,49809,999,2859,0,-.86E-6,0
GSAT0224 (GALILEO 28),2021-116B,2026-07-10T06:33:55.425024,1.70475962,.000179,57.1533,341.0513,180.2049,180.8962,0,U,49810,999,2860,0,-.8E-6,0
COSMOS 2557 (706K),2022-075A,2026-07-11T00:59:19.008672,2.13102395,.00107774,64.2833,313.6457,271.9721,87.9097,0,U,52984,999,3122,0,-.63E-6,0
COSMOS 2559 (707K),2022-130A,2026-07-11T19:11:08.825280,2.13101617,.0013043,64.2551,313.7009,180.7023,179.3009,0,U,54031,999,2921,0,-.64E-6,0
COSMOS 2564 (761),2022-161A,2026-07-11T15:25:18.175872,2.13101969,.00122508,64.7436,191.8998,225.0518,134.8769,0,U,54377,999,2815,0,.106E-5,0
GPS BIII-6  (PRN 28),2023-009A,2026-07-12T03:13:11.812800,2.00569737,.00062132,55.1239,147.5384,321.0542,219.3339,0,U,55268,999,2574,0,.2E-6,0
BEIDOU-3 G4 (C62),2023-066A,2026-07-12T15:53:13.953120,1.00273306,.0004869,0.4627,338.1215,188.0920,142.6951,0,U,56564,999,1164,0,-.28E-5,0
NVS-01 (IRNSS-1J),2023-076A,2026-07-12T12:24:59.567040,1.00265872,.00035433,2.1083,243.2094,7.3704,355.5557,0,U,56759,999,1137,0,-.334E-5,0
COSMOS 2569 (703K),2023-114A,2026-07-12T02:58:44.605632,2.13103697,.00097779,65.3163,71.7798,296.1648,63.8030,0,U,57517,999,2279,0,-.16E-6,0
BEIDOU-3 M28 (C50),2023-207A,2026-07-11T23:59:06.940896,1.86229629,.00025144,55.7747,61.4661,3.1911,356.8781,0,U,58654,999,1730,0,-.44E-6,0
BEIDOU-3 M26 (C48),2023-207B,2026-07-10T17:21:03.633408,1.86229637,.0002139,55.7759,61.4958,324.4555,35.5938,0,U,58655,999,1726,0,-.47E-6,0
